{
    "links": {
        "self": "http://www.neowsapp.com/rest/v1/neo/3843902?api_key=iIulBulltgU6a56xZRHN4H3l9WmuAYTsLGpBGhQ2"
    },
    "id": "3843902",
    "neo_reference_id": "3843902",
    "name": "(2019 SC1)",
    "designation": "2019 SC1",
    "nasa_jpl_url": "http://ssd.jpl.nasa.gov/sbdb.cgi?sstr=3843902",
    "absolute_magnitude_h": 22.9,
    "estimated_diameter": {
        "kilometers": {
            "estimated_diameter_min": 0.0699125232,
            "estimated_diameter_max": 0.1563291544
        },
        "meters": {
            "estimated_diameter_min": 69.9125232246,
            "estimated_diameter_max": 156.3291544087
        },
        "miles": {
            "estimated_diameter_min": 0.0434416145,
            "estimated_diameter_max": 0.097138403
        },
        "feet": {
            "estimated_diameter_min": 229.3718026961,
            "estimated_diameter_max": 512.8909429502
        }
    },
    "is_potentially_hazardous_asteroid": false,
    "close_approach_data": [
        {
            "close_approach_date": "2019-09-22",
            "close_approach_date_full": "2019-Sep-22 14:04",
            "epoch_date_close_approach": 1569161040000,
            "relative_velocity": {
                "kilometers_per_second": "13.5917136677",
                "kilometers_per_hour": "48930.1692035731",
                "miles_per_hour": "30403.3043031869"
            },
            "miss_distance": {
                "astronomical": "0.1694701347",
                "lunar": "65.9238823983",
                "kilometers": "25352371.179733089",
                "miles": "15753232.9639670682"
            },
            "orbiting_body": "Earth"
        },
        {
            "close_approach_date": "2020-01-26",
            "close_approach_date_full": "2020-Jan-26 12:52",
            "epoch_date_close_approach": 1580043120000,
            "relative_velocity": {
                "kilometers_per_second": "12.8626745292",
                "kilometers_per_hour": "46305.628305116",
                "miles_per_hour": "28772.516654365"
            },
            "miss_distance": {
                "astronomical": "0.4295528323",
                "lunar": "167.0960517647",
                "kilometers": "64260188.764547201",
                "miles": "39929429.7460293338"
            },
            "orbiting_body": "Earth"
        }
    ],
    "orbital_data": {
        "orbit_id": "6",
        "orbit_determination_date": "2019-10-22 05:55:45",
        "first_observation_date": "2019-09-19",
        "last_observation_date": "2019-09-26",
        "data_arc_in_days": 7,
        "observations_used": 44,
        "orbit_uncertainty": "8",
        "minimum_orbit_intersection": ".148735",
        "jupiter_tisserand_invariant": "4.315",
        "epoch_osculation": "2458747.5",
        "eccentricity": ".333964479486956",
        "semi_major_axis": "1.53671542103117",
        "inclination": "24.98974816723517",
        "ascending_node_longitude": "349.8922612410531",
        "orbital_period": "695.8066916150614",
        "perihelion_distance": "1.023507055326917",
        "perihelion_argument": "61.58127443505909",
        "aphelion_distance": "2.049923786735424",
        "perihelion_time": "2458804.147113684366",
        "mean_anomaly": "330.6916286202466",
        "mean_motion": ".5173850788419285",
        "equinox": "J2000",
        "orbit_class": {
            "orbit_class_type": "AMO",
            "orbit_class_description": "Near-Earth asteroid orbits similar to that of 1221 Amor",
            "orbit_class_range": "1.017 AU < q (perihelion) < 1.3 AU"
        }
    },
    "is_sentry_object": false
}